{"type": "FeatureCollection", "features": [ {"type": "Feature", "properties": {"norad_id": 39574, "name": "GPM-CORE", "group": "resource", "lat": 61.23297766493577, "lon": -72.3974543353994, "alt_km": 430.22497665827814, "timestamp": "2025-12-07T18:50:16.381317+00:00", "meta": {"OBJECT_NAME": "GPM-CORE", "OBJECT_ID": "2014-009C", "EPOCH": "2025-12-07T06:05:15.462816", "MEAN_MOTION": 15.45363162, "ECCENTRICITY": 0.00105235, "INCLINATION": 64.974, "RA_OF_ASC_NODE": 231.0644, "ARG_OF_PERICENTER": 269.7953, "MEAN_ANOMALY": 90.1982, "EPHEMERIS_TYPE": 0, "CLASSIFICATION_TYPE": "U", "NORAD_CAT_ID": 39574, "ELEMENT_SET_NO": 999, "REV_AT_EPOCH": 66816, "BSTAR": 0.00044707692, "MEAN_MOTION_DOT": 0.00021316, "MEAN_MOTION_DDOT": 0}, "tle": {"line1": "1 39574U 14009C   25341.25365119  .00021316  00000+0  44708-3 0  9997", "line2": "2 39574  64.9740 231.0644 0010523 269.7953  90.1982 15.45363162668164"}}, "geometry": {"type": "Point", "coordinates": [-72.3974543353994, 61.23297766493577]}}, {"type": "Feature", "properties": {"norad_id": 39634, "name": "SENTINEL-1A", "group": "resource", "lat": 30.631505756920564, "lon": -17.78669490951008, "alt_km": 693.6392564052758, "timestamp": "2025-12-07T18:50:16.381337+00:00", "meta": {"OBJECT_NAME": "SENTINEL-1A", "OBJECT_ID": "2014-016A", "EPOCH": "2025-12-07T07:10:34.945248", "MEAN_MOTION": 14.59199239, "ECCENTRICITY": 0.00012456, "INCLINATION": 98.1803, "RA_OF_ASC_NODE": 346.6208, "ARG_OF_PERICENTER": 89.0861, "MEAN_ANOMALY": 271.0481, "EPHEMERIS_TYPE": 0, "CLASSIFICATION_TYPE": "U", "NORAD_CAT_ID": 39634, "ELEMENT_SET_NO": 999, "REV_AT_EPOCH": 62203, "BSTAR": 9.0704154e-05, "MEAN_MOTION_DOT": 3.82e-06, "MEAN_MOTION_DDOT": 0}, "tle": {"line1": "1 39634U 14016A   25341.29901557  .00000382  00000+0  90704-4 0  9996", "line2": "2 39634  98.1803 346.6208 0001245  89.0861 271.0481 14.59199239622037"}}, "geometry": {"type": "Point", "coordinates": [-17.78669490951008, 30.631505756920564]}}, {"type": "Feature", "properties": {"norad_id": 39731, "name": "KAZEOSAT 1", "group": "resource", "lat": -48.54789598221367, "lon": 63.368499529566954, "alt_km": 759.1839308475701, "timestamp": "2025-12-07T18:50:16.381349+00:00", "meta": {"OBJECT_NAME": "KAZEOSAT 1", "OBJECT_ID": "2014-024A", "EPOCH": "2025-12-07T07:24:32.715072", "MEAN_MOTION": 14.42057999, "ECCENTRICITY": 0.00010723, "INCLINATION": 98.3441, "RA_OF_ASC_NODE": 53.3379, "ARG_OF_PERICENTER": 99.8646, "MEAN_ANOMALY": 260.2664, "EPHEMERIS_TYPE": 0, "CLASSIFICATION_TYPE": "U", "NORAD_CAT_ID": 39731, "ELEMENT_SET_NO": 999, "REV_AT_EPOCH": 61090, "BSTAR": 0.0001694815, "MEAN_MOTION_DOT": 5.14e-06, "MEAN_MOTION_DDOT": 0}, "tle": {"line1": "1 39731U 14024A   25341.30871198  .00000514  00000+0  16948-3 0  9996", "line2": "2 39731  98.3441  53.3379 0001072  99.8646 260.2664 14.42057999610908"}}, "geometry": {"type": "Point", "coordinates": [63.368499529566954, -48.54789598221367]}}, {"type": "Feature", "properties": {"norad_id": 39766, "name": "ALOS-2", "group": "resource", "lat": -67.5687205694819, "lon": -123.01495174403745, "alt_km": 639.1257261269138, "timestamp": "2025-12-07T18:50:16.381359+00:00", "meta": {"OBJECT_NAME": "ALOS-2", "OBJECT_ID": "2014-029A", "EPOCH": "2025-12-07T06:21:13.934304", "MEAN_MOTION": 14.79458027, "ECCENTRICITY": 0.00014582, "INCLINATION": 97.9233, "RA_OF_ASC_NODE": 76.1891, "ARG_OF_PERICENTER": 104.9983, "MEAN_ANOMALY": 255.139, "EPHEMERIS_TYPE": 0, "CLASSIFICATION_TYPE": "U", "NORAD_CAT_ID": 39766, "ELEMENT_SET_NO": 999, "REV_AT_EPOCH": 62320, "BSTAR": 0.00046763648, "MEAN_MOTION_DOT": 3.441e-05, "MEAN_MOTION_DDOT": 0}, "tle": {"line1": "1 39766U 14029A   25341.26474461  .00003441  00000+0  46764-3 0  9997", "line2": "2 39766  97.9233  76.1891 0001458 104.9983 255.1390 14.79458027623205"}}, "geometry": {"type": "Point", "coordinates": [-123.01495174403745, -67.5687205694819]}}, {"type": "Feature", "properties": {"norad_id": 40010, "name": "KAZEOSAT 2", "group": "resource", "lat": 56.83128158634684, "lon": 174.6449334011987, "alt_km": 612.7395091945064, "timestamp": "2025-12-07T18:50:16.381370+00:00", "meta": {"OBJECT_NAME": "KAZEOSAT 2", "OBJECT_ID": "2014-033A", "EPOCH": "2025-12-07T07:15:36.413856", "MEAN_MOTION": 14.85154547, "ECCENTRICITY": 0.00074312, "INCLINATION": 97.5515, "RA_OF_ASC_NODE": 185.8978, "ARG_OF_PERICENTER": 226.6097, "MEAN_ANOMALY": 133.45, "EPHEMERIS_TYPE": 0, "CLASSIFICATION_TYPE": "U", "NORAD_CAT_ID": 40010, "ELEMENT_SET_NO": 999, "REV_AT_EPOCH": 62047, "BSTAR": 0.00017046304, "MEAN_MOTION_DOT": 1.41e-05, "MEAN_MOTION_DDOT": 0}, "tle": {"line1": "1 40010U 14033A   25341.30250479  .00001410  00000+0  17046-3 0  9997", "line2": "2 40010  97.5515 185.8978 0007431 226.6097 133.4500 14.85154547620471"}}, "geometry": {"type": "Point", "coordinates": [174.6449334011987, 56.83128158634684]}}, {"type": "Feature", "properties": {"norad_id": 40011, "name": "HODOYOSHI-4", "group": "resource", "lat": 73.98366533439014, "lon": 18.398330702498782, "alt_km": 605.1412011663515, "timestamp": "2025-12-07T18:50:16.381381+00:00", "meta": {"OBJECT_NAME": "HODOYOSHI-4", "OBJECT_ID": "2014-033B", "EPOCH": "2025-12-07T07:04:05.174112", "MEAN_MOTION": 14.87451958, "ECCENTRICITY": 0.00228527, "INCLINATION": 97.5416, "RA_OF_ASC_NODE": 170.4471, "ARG_OF_PERICENTER": 219.1624, "MEAN_ANOMALY": 140.7941, "EPHEMERIS_TYPE": 0, "CLASSIFICATION_TYPE": "U", "NORAD_CAT_ID": 40011, "ELEMENT_SET_NO": 999, "REV_AT_EPOCH": 62027, "BSTAR": 0.00035961496, "MEAN_MOTION_DOT": 3.22e-05, "MEAN_MOTION_DDOT": 0}, "tle": {"line1": "1 40011U 14033B   25341.29450433  .00003220  00000+0  35961-3 0  9995", "line2": "2 40011  97.5416 170.4471 0022852 219.1624 140.7941 14.87451958620273"}}, "geometry": {"type": "Point", "coordinates": [18.398330702498782, 73.98366533439014]}}, {"type": "Feature", "properties": {"norad_id": 40013, "name": "DEIMOS-2", "group": "resource", "lat": 15.916198897304572, "lon": 39.93235312963722, "alt_km": 589.3053188440535, "timestamp": "2025-12-07T18:50:16.381394+00:00", "meta": {"OBJECT_NAME": "DEIMOS-2", "OBJECT_ID": "2014-033D", "EPOCH": "2025-12-07T06:50:47.664960", "MEAN_MOTION": 14.92938422, "ECCENTRICITY": 0.00010086, "INCLINATION": 97.6071, "RA_OF_ASC_NODE": 217.2652, "ARG_OF_PERICENTER": 93.6615, "MEAN_ANOMALY": 266.472, "EPHEMERIS_TYPE": 0, "CLASSIFICATION_TYPE": "U", "NORAD_CAT_ID": 40013, "ELEMENT_SET_NO": 999, "REV_AT_EPOCH": 60908, "BSTAR": 0.00041642966, "MEAN_MOTION_DOT": 4.268e-05, "MEAN_MOTION_DDOT": 0}, "tle": {"line1": "1 40013U 14033D   25341.28527390  .00004268  00000+0  41643-3 0  9990", "line2": "2 40013  97.6071 217.2652 0001008  93.6615 266.4720 14.92938422609088"}}, "geometry": {"type": "Point", "coordinates": [39.93235312963722, 15.916198897304572]}}, {"type": "Feature", "properties": {"norad_id": 40015, "name": "HODOYOSHI-3", "group": "resource", "lat": 75.29376076831554, "lon": 117.16851830103816, "alt_km": 629.193986336184, "timestamp": "2025-12-07T18:50:16.381404+00:00", "meta": {"OBJECT_NAME": "HODOYOSHI-3", "OBJECT_ID": "2014-033F", "EPOCH": "2025-12-07T00:41:52.181952", "MEAN_MOTION": 14.84776118, "ECCENTRICITY": 0.00318266, "INCLINATION": 97.6196, "RA_OF_ASC_NODE": 147.1127, "ARG_OF_PERICENTER": 267.4936, "MEAN_ANOMALY": 92.2635, "EPHEMERIS_TYPE": 0, "CLASSIFICATION_TYPE": "U", "NORAD_CAT_ID": 40015, "ELEMENT_SET_NO": 999, "REV_AT_EPOCH": 61910, "BSTAR": 0.00035257459, "MEAN_MOTION_DOT": 2.965e-05, "MEAN_MOTION_DDOT": 0}, "tle": {"line1": "1 40015U 14033F   25341.02907618  .00002965  00000+0  35257-3 0  9995", "line2": "2 40015  97.6196 147.1127 0031826 267.4936  92.2635 14.84776118619101"}}, "geometry": {"type": "Point", "coordinates": [117.16851830103816, 75.29376076831554]}}, {"type": "Feature", "properties": {"norad_id": 40053, "name": "SPOT 7", "group": "resource", "lat": -48.00140651480982, "lon": -145.1166441944115, "alt_km": 698.437970942271, "timestamp": "2025-12-07T18:50:16.381414+00:00", "meta": {"OBJECT_NAME": "SPOT 7", "OBJECT_ID": "2014-034A", "EPOCH": "2025-12-07T06:17:12.516288", "MEAN_MOTION": 14.60723459, "ECCENTRICITY": 0.00015214, "INCLINATION": 98.0914, "RA_OF_ASC_NODE": 43.4636, "ARG_OF_PERICENTER": 94.5247, "MEAN_ANOMALY": 265.6128, "EPHEMERIS_TYPE": 0, "CLASSIFICATION_TYPE": "U", "NORAD_CAT_ID": 40053, "ELEMENT_SET_NO": 999, "REV_AT_EPOCH": 60911, "BSTAR": 0.00023970439, "MEAN_MOTION_DOT": 1.123e-05, "MEAN_MOTION_DDOT": 0}, "tle": {"line1": "1 40053U 14034A   25341.26195042  .00001123  00000+0  23970-3 0  9998", "line2": "2 40053  98.0914  43.4636 0001521  94.5247 265.6128 14.60723459609119"}}, "geometry": {"type": "Point", "coordinates": [-145.1166441944115, -48.00140651480982]}}, {"type": "Feature", "properties": {"norad_id": 40072, "name": "SKYSAT-B", "group": "resource", "lat": 49.05105099078369, "lon": -84.52830799186162, "alt_km": 603.6500566452169, "timestamp": "2025-12-07T18:50:16.381424+00:00", "meta": {"OBJECT_NAME": "SKYSAT-B", "OBJECT_ID": "2014-037D", "EPOCH": "2025-12-07T05:41:51.201888", "MEAN_MOTION": 14.87295534, "ECCENTRICITY": 0.00056979, "INCLINATION": 98.3603, "RA_OF_ASC_NODE": 284.6528, "ARG_OF_PERICENTER": 166.9125, "MEAN_ANOMALY": 193.2239, "EPHEMERIS_TYPE": 0, "CLASSIFICATION_TYPE": "U", "NORAD_CAT_ID": 40072, "ELEMENT_SET_NO": 999, "REV_AT_EPOCH": 61742, "BSTAR": 0.00033583181, "MEAN_MOTION_DOT": 2.97e-05, "MEAN_MOTION_DDOT": 0}, "tle": {"line1": "1 40072U 14037D   25341.23739817  .00002970  00000+0  33583-3 0  9995", "line2": "2 40072  98.3603 284.6528 0005697 166.9125 193.2239 14.87295534617423"}}, "geometry": {"type": "Point", "coordinates": [-84.52830799186162, 49.05105099078369]}}]}